[{"OBJECT_NAME":"FGN-100-D2","OBJECT_ID":"2025-248G","EPOCH":"2026-03-09T00:05:30.712416","MEAN_MOTION":15.19697424,"ECCENTRICITY":0.00052703,"INCLINATION":45.4006,"RA_OF_ASC_NODE":298.0063,"ARG_OF_PERICENTER":203.9196,"MEAN_ANOMALY":156.1446,"EPHEMERIS_TYPE":0,"CLASSIFICATION_TYPE":"U","NORAD_CAT_ID":66299,"ELEMENT_SET_NO":999,"REV_AT_EPOCH":1927,"BSTAR":0.00030465999,"MEAN_MOTION_DOT":6.346e-5,"MEAN_MOTION_DDOT":0},{"OBJECT_NAME":"FLOCK 4H-17","OBJECT_ID":"2025-276BG","EPOCH":"2026-03-09T12:13:32.774304","MEAN_MOTION":15.19779499,"ECCENTRICITY":0.00021349,"INCLINATION":97.4298,"RA_OF_ASC_NODE":143.9091,"ARG_OF_PERICENTER":323.7123,"MEAN_ANOMALY":36.3967,"EPHEMERIS_TYPE":0,"CLASSIFICATION_TYPE":"U","NORAD_CAT_ID":66720,"ELEMENT_SET_NO":999,"REV_AT_EPOCH":1529,"BSTAR":0.00077231718,"MEAN_MOTION_DOT":0.00016485,"MEAN_MOTION_DDOT":0}]
